{
  "norad_id": 57247,
  "name": "STARLINK-5039",
  "history": [
    {
      "epoch": "2026-03-28T22:00:01.999584",
      "apogee_km": 487.1285262684214,
      "perigee_km": 484.4580455513851,
      "latitude_deg": -38.918874295821865,
      "longitude_deg": -7.2977782401721925,
      "semi_major_axis_km": 6863.930285909903,
      "eccentricity": 0.00019453,
      "inclination_deg": 43.0002,
      "raan_deg": 270.9288,
      "arg_perigee_deg": 282.7397,
      "mean_anomaly_deg": 121.2161,
      "mean_motion_rev_day": 15.26664005
    },
    {
      "epoch": "2026-03-29T04:00:01.999584",
      "apogee_km": 486.7572880935122,
      "perigee_km": 484.29597831464525,
      "latitude_deg": 39.2769668834575,
      "longitude_deg": 16.702221759827808,
      "semi_major_axis_km": 6863.663633204078,
      "eccentricity": 0.0001793,
      "inclination_deg": 43.0,
      "raan_deg": 269.5185,
      "arg_perigee_deg": 266.7817,
      "mean_anomaly_deg": 72.8184,
      "mean_motion_rev_day": 15.26752972
    }
  ]
}